[{"OBJECT_NAME":"STARLINK-31742","OBJECT_ID":"2024-071R","EPOCH":"2026-03-09T03:18:19.518624","MEAN_MOTION":15.27533339,"ECCENTRICITY":8.466e-5,"INCLINATION":43.0036,"RA_OF_ASC_NODE":342.6484,"ARG_OF_PERICENTER":259.5431,"MEAN_ANOMALY":100.5326,"EPHEMERIS_TYPE":0,"CLASSIFICATION_TYPE":"U","NORAD_CAT_ID":59499,"ELEMENT_SET_NO":999,"REV_AT_EPOCH":10812,"BSTAR":1.7280895e-5,"MEAN_MOTION_DOT":2.13e-6,"MEAN_MOTION_DDOT":0},{"OBJECT_NAME":"FLOCK 4G-17","OBJECT_ID":"2025-009CA","EPOCH":"2026-03-09T22:51:51.984864","MEAN_MOTION":15.27385439,"ECCENTRICITY":0.00036407,"INCLINATION":97.3966,"RA_OF_ASC_NODE":151.0229,"ARG_OF_PERICENTER":339.6132,"MEAN_ANOMALY":20.4962,"EPHEMERIS_TYPE":0,"CLASSIFICATION_TYPE":"U","NORAD_CAT_ID":62681,"ELEMENT_SET_NO":999,"REV_AT_EPOCH":12139,"BSTAR":0.00053710713,"MEAN_MOTION_DOT":0.00014342,"MEAN_MOTION_DDOT":0}]
